OBJECT_NAME,OBJECT_ID,EPOCH,MEAN_MOTION,ECCENTRICITY,INCLINATION,RA_OF_ASC_NODE,ARG_OF_PERICENTER,MEAN_ANOMALY,EPHEMERIS_TYPE,CLASSIFICATION_TYPE,NORAD_CAT_ID,ELEMENT_SET_NO,REV_AT_EPOCH,BSTAR,MEAN_MOTION_DOT,MEAN_MOTION_DDOT
FLOCK 4BE-36,2024-149U,2026-05-31T04:26:36.354336,15.42150297,.0002524,97.3748,235.4164,350.9483,9.1718,0,U,60486,999,9973,.58528E-3,.25037E-3,0
FLOCK 4BE-25,2024-149V,2026-05-31T04:16:58.342656,15.38357193,.0001142,97.3806,234.2190,5.8439,354.2819,0,U,60487,999,9962,.54809E-3,.20674E-3,0
FLOCK 4BE-31,2024-149W,2026-05-31T05:31:48.974016,15.43387964,.0001625,97.3803,236.2737,8.2982,351.8293,0,U,60488,999,9976,.66477E-3,.29668E-3,0
FLOCK 4BE-20,2024-149X,2026-05-31T04:45:38.621088,15.37580758,.0002567,97.3704,233.1618,348.4334,11.6851,0,U,60489,999,9960,.54209E-3,.19938E-3,0
FLOCK 4BE-23,2024-149Y,2026-05-31T04:25:37.685280,15.37220163,.0002449,97.3786,233.5147,0.1990,359.9255,0,U,60490,999,9958,.54523E-3,.19821E-3,0
FLOCK 4BE-15,2024-149Z,2026-05-31T04:44:51.610848,15.56460213,.0000265,97.3695,235.9824,257.3897,102.7328,0,U,60491,999,9978,.28476E-2,.206259E-2,0
FLOCK 4BE-17,2024-149AA,2026-05-31T04:35:50.790048,15.39251451,.0001805,97.3782,234.4332,344.1379,15.9810,0,U,60492,999,9964,.62525E-3,.24307E-3,0
NUSAT-50 (NANCY ROMAN),2024-149AB,2026-05-31T03:51:24.531840,15.29533725,.0001963,97.3793,232.5389,241.1365,118.9679,0,U,60493,999,9952,.48864E-3,.13925E-3,0
FLOCK 4BE-22,2024-149AC,2026-05-31T04:30:58.212000,15.40606898,.0002491,97.3742,234.5950,353.0895,7.0317,0,U,60494,999,9968,.558E-3,.22667E-3,0
FLOCK 4BE-34,2024-149AD,2026-05-31T04:55:45.410016,15.40628103,.0002783,97.3786,235.4242,8.2183,351.9108,0,U,60495,999,9971,.58134E-3,.23639E-3,0
TYCHE,2024-149AE,2026-05-31T05:12:16.375680,15.25835415,.0001732,97.3759,229.2598,16.6975,343.4320,0,U,60496,999,9931,.26208E-3,.6634E-4,0
FLOCK 4BE-32,2024-149AF,2026-05-31T04:25:42.165120,15.41531891,.0002594,97.3727,234.9355,358.8262,1.2979,0,U,60497,999,9971,.65769E-3,.27581E-3,0
NUSAT-48 (HENRIETTA LEAVITT),2024-149AG,2026-05-31T05:13:31.179072,15.30161244,.0003253,97.3913,232.8031,358.1202,2.0025,0,U,60498,999,9954,.49042E-3,.1425E-3,0
FLOCK 4BE-30,2024-149AH,2026-05-31T04:44:32.679744,15.52200356,.0001549,97.3788,236.1985,218.2403,141.8740,0,U,60499,999,9913,.27118E-2,.16747E-2,0
NUSAT-49 (KLARA DAN VON NEUMANN),2024-149AJ,2026-05-31T04:42:29.894112,15.30194297,.0002539,97.3785,232.6001,43.1646,316.9793,0,U,60500,999,9953,.45731E-3,.13295E-3,0
FLOCK 4BE-11,2024-149AK,2026-05-31T04:31:05.066112,15.42374344,.0002759,97.3708,235.1529,356.1760,3.9466,0,U,60501,999,9973,.61124E-3,.26352E-3,0
YAM-7,2024-149AN,2026-05-31T04:51:24.932160,15.31564642,.000346,97.3786,231.5238,22.7370,337.4024,0,U,60504,999,9945,.35415E-3,.10723E-3,0
FLOCK 4BE-24,2024-149AP,2026-05-31T04:12:35.593344,15.42380611,.0003007,97.3723,235.3909,5.7467,354.3815,0,U,60505,999,9974,.66654E-3,.28759E-3,0
LUR-1,2024-149AQ,2026-05-31T02:36:02.234880,15.29860476,.0004377,97.3743,230.0629,27.9309,332.2166,0,U,60506,999,9936,.32186E-3,.9235E-4,0
TANAGER-1,2024-149AR,2026-05-31T04:32:39.950592,15.44818397,.0004285,97.2933,245.4190,8.8575,351.2749,0,U,60507,999,10041,.41971E-3,.19607E-3,0
EAGLEEYE,2024-149AS,2026-05-31T05:01:41.384928,15.67791926,.000209,97.3730,243.6494,289.8899,70.2136,0,U,60508,999,10027,.106E-2,.117545E-2,0
FLOCK 4BE-29,2024-149AT,2026-05-31T04:45:46.841184,15.43539561,.0002496,97.3810,236.8226,32.5156,327.6245,0,U,60509,999,9979,.5816E-3,.26067E-3,0
TRANSPORTER-11 OBJECT AU,2024-149AU,2026-05-31T05:29:11.148864,15.39712502,.0003318,97.3735,234.8198,13.8938,346.2399,0,U,60510,999,9970,.54886E-3,.21647E-3,0
FLOCK 4BE-2,2024-149AV,2026-05-31T05:29:29.837184,15.50819907,.0001987,97.3837,238.0636,349.8551,10.2661,0,U,60511,999,9987,.13145E-2,.76358E-3,0
FLOCK 4BE-13,2024-149AW,2026-05-31T05:09:39.652992,15.41393995,.0003172,97.3725,235.4563,348.1574,11.9598,0,U,60512,999,9975,.49229E-3,.20511E-3,0
FLOCK 4BE-27,2024-149AX,2026-05-31T04:08:14.199648,15.34125705,.0003958,97.3831,233.0190,27.0100,333.1348,0,U,60513,999,9953,.42041E-3,.13817E-3,0
FLOCK 4BE-9,2024-149AY,2026-05-31T04:50:43.471392,15.40251906,.0002586,97.3798,235.3157,31.7356,328.4045,0,U,60514,999,9970,.61506E-3,.2471E-3,0
FLOCK 4BE-6,2024-149BA,2026-05-31T05:13:10.444800,15.39082645,.0003168,97.3797,234.7214,23.1039,337.0349,0,U,60516,999,9966,.5357E-3,.20691E-3,0
FLOCK 4BE-14,2024-149BB,2026-05-31T05:11:38.156640,15.40422194,.0003951,97.3703,234.8420,16.3701,343.7672,0,U,60517,999,9971,.60396E-3,.24401E-3,0
FLOCK 4BE-1,2024-149BC,2026-05-31T04:26:19.558176,15.41986246,.0003566,97.3786,236.0270,15.5994,344.5362,0,U,60518,999,9975,.62452E-3,.26583E-3,0
