FLOCK 4BE-36            
1 60486U 24149U   26151.18514299  .00025037  00000+0  58528-3 0  9995
2 60486  97.3748 235.4164 0002524 350.9483   9.1718 15.42150297 99734
FLOCK 4BE-25            
1 60487U 24149V   26151.17845304  .00020674  00000+0  54809-3 0  9999
2 60487  97.3806 234.2190 0001142   5.8439 354.2819 15.38357193 99621
FLOCK 4BE-31            
1 60488U 24149W   26151.23042794  .00029668  00000+0  66477-3 0  9995
2 60488  97.3803 236.2737 0001625   8.2982 351.8293 15.43387964 99763
FLOCK 4BE-20            
1 60489U 24149X   26151.19836367  .00019938  00000+0  54209-3 0  9997
2 60489  97.3704 233.1618 0002567 348.4334  11.6851 15.37580758 99607
FLOCK 4BE-23            
1 60490U 24149Y   26151.18446395  .00019821  00000+0  54523-3 0  9996
2 60490  97.3786 233.5147 0002449   0.1990 359.9255 15.37220163 99583
FLOCK 4BE-15            
1 60491U 24149Z   26151.19781957  .00206259  00000+0  28476-2 0  9994
2 60491  97.3695 235.9824 0000265 257.3897 102.7328 15.56460213 99787
FLOCK 4BE-17            
1 60492U 24149AA  26151.19156007  .00024307  00000+0  62525-3 0  9993
2 60492  97.3782 234.4332 0001805 344.1379  15.9810 15.39251451 99643
NUSAT-50 (NANCY ROMAN)  
1 60493U 24149AB  26151.16070060  .00013925  00000+0  48864-3 0  9999
2 60493  97.3793 232.5389 0001963 241.1365 118.9679 15.29533725 99523
FLOCK 4BE-22            
1 60494U 24149AC  26151.18817375  .00022667  00000+0  55800-3 0  9991
2 60494  97.3742 234.5950 0002491 353.0895   7.0317 15.40606898 99681
FLOCK 4BE-34            
1 60495U 24149AD  26151.20538669  .00023639  00000+0  58134-3 0  9994
2 60495  97.3786 235.4242 0002783   8.2183 351.9108 15.40628103 99713
TYCHE                   
1 60496U 24149AE  26151.21685620  .00006634  00000+0  26208-3 0  9999
2 60496  97.3759 229.2598 0001732  16.6975 343.4320 15.25835415 99311
FLOCK 4BE-32            
1 60497U 24149AF  26151.18451580  .00027581  00000+0  65769-3 0  9991
2 60497  97.3727 234.9355 0002594 358.8262   1.2979 15.41531891 99710
NUSAT-48 (HENRIETTA LE*)
1 60498U 24149AG  26151.21772198  .00014250  00000+0  49042-3 0  9992
2 60498  97.3913 232.8031 0003253 358.1202   2.0025 15.30161244 99547
FLOCK 4BE-30            
1 60499U 24149AH  26151.19760046  .00167470  00000+0  27118-2 0  9991
2 60499  97.3788 236.1985 0001549 218.2403 141.8740 15.52200356 99131
NUSAT-49 (KLARA DAN VO*)
1 60500U 24149AJ  26151.19617933  .00013295  00000+0  45731-3 0  9997
2 60500  97.3785 232.6001 0002539  43.1646 316.9793 15.30194297 99534
FLOCK 4BE-11            
1 60501U 24149AK  26151.18825308  .00026352  00000+0  61124-3 0  9996
2 60501  97.3708 235.1529 0002759 356.1760   3.9466 15.42374344 99739
YAM-7                   
1 60504U 24149AN  26151.20237190  .00010723  00000+0  35415-3 0  9997
2 60504  97.3786 231.5238 0003460  22.7370 337.4024 15.31564642 99452
FLOCK 4BE-24            
1 60505U 24149AP  26151.17541196  .00028759  00000+0  66654-3 0  9995
2 60505  97.3723 235.3909 0003007   5.7467 354.3815 15.42380611 99748
LUR-1                   
1 60506U 24149AQ  26151.10835920  .00009235  00000+0  32186-3 0  9991
2 60506  97.3743 230.0629 0004377  27.9309 332.2166 15.29860476 99363
TANAGER-1               
1 60507U 24149AR  26151.18935128  .00019607  00000+0  41971-3 0  9997
2 60507  97.2933 245.4190 0004285   8.8575 351.2749 15.44818397100417
EAGLEEYE                
1 60508U 24149AS  26151.20950677  .00117545  00000+0  10600-2 0  9991
2 60508  97.3730 243.6494 0002090 289.8899  70.2136 15.67791926100278
FLOCK 4BE-29            
1 60509U 24149AT  26151.19845881  .00026067  00000+0  58160-3 0  9992
2 60509  97.3810 236.8226 0002496  32.5156 327.6245 15.43539561 99797
TRANSPORTER-11 OBJECT AU
1 60510U 24149AU  26151.22860126  .00021647  00000+0  54886-3 0  9997
2 60510  97.3735 234.8198 0003318  13.8938 346.2399 15.39712502 99706
FLOCK 4BE-2             
1 60511U 24149AV  26151.22881756  .00076358  00000+0  13145-2 0  9991
2 60511  97.3837 238.0636 0001987 349.8551  10.2661 15.50819907 99874
FLOCK 4BE-13            
1 60512U 24149AW  26151.21504228  .00020511  00000+0  49229-3 0  9990
2 60512  97.3725 235.4563 0003172 348.1574  11.9598 15.41393995 99754
FLOCK 4BE-27            
1 60513U 24149AX  26151.17238657  .00013817  00000+0  42041-3 0  9992
2 60513  97.3831 233.0190 0003958  27.0100 333.1348 15.34125705 99535
FLOCK 4BE-9             
1 60514U 24149AY  26151.20189203  .00024710  00000+0  61506-3 0  9990
2 60514  97.3798 235.3157 0002586  31.7356 328.4045 15.40251906 99707
FLOCK 4BE-6             
1 60516U 24149BA  26151.21748200  .00020691  00000+0  53570-3 0  9997
2 60516  97.3797 234.7214 0003168  23.1039 337.0349 15.39082645 99663
FLOCK 4BE-14            
1 60517U 24149BB  26151.21641385  .00024401  00000+0  60396-3 0  9991
2 60517  97.3703 234.8420 0003951  16.3701 343.7672 15.40422194 99719
FLOCK 4BE-1             
1 60518U 24149BC  26151.18494859  .00026583  00000+0  62452-3 0  9998
2 60518  97.3786 236.0270 0003566  15.5994 344.5362 15.41986246 99758
